CCSDS_OMM_VERS,COMMENT,CREATION_DATE,ORIGINATOR,OBJECT_NAME,OBJECT_ID,CENTER_NAME,REF_FRAME,TIME_SYSTEM,MEAN_ELEMENT_THEORY,EPOCH,MEAN_MOTION,ECCENTRICITY,INCLINATION,RA_OF_ASC_NODE,ARG_OF_PERICENTER,MEAN_ANOMALY,EPHEMERIS_TYPE,CLASSIFICATION_TYPE,NORAD_CAT_ID,ELEMENT_SET_NO,REV_AT_EPOCH,BSTAR,MEAN_MOTION_DOT,MEAN_MOTION_DDOT,SEMIMAJOR_AXIS,PERIOD,APOAPSIS,PERIAPSIS,OBJECT_TYPE,RCS_SIZE,COUNTRY_CODE,LAUNCH_DATE,SITE,DECAY_DATE,FILE,GP_ID,TLE_LINE0,TLE_LINE1,TLE_LINE2
"2.0","GENERATED VIA SPACE-TRACK.ORG API","2020-02-25T17:06:32","18 SPCS","COSMOS 2498","2014-028C","EARTH","TEME","UTC","SGP4","2020-02-25T11:04:48.940320","12.42884299","0.00214840","82.4457","111.8593","54.6871","305.6230","0","U","39763","999","26140","0.00002009300000","0.00000013","0.0000000000000","7872.536","115.859","1511.315","1477.488","PAYLOAD","LARGE","CIS","2014-05-23","PKMTR","","2709763","149486033","0 COSMOS 2498","1 39763U 14028C   20056.46167755 +.00000013 +00000-0 +20093-4 0  9999","2 39763 082.4457 111.8593 0021484 054.6871 305.6230 12.42884299261409"
"2.0","GENERATED VIA SPACE-TRACK.ORG API","2020-02-25T17:06:32","18 SPCS","COSMOS 1732","1986-015A","EARTH","TEME","UTC","SGP4","2020-02-25T06:06:30.923712","12.40983826","0.00258440","73.6114","152.8340","125.1656","235.1814","0","U","16593","999","54199","0.00013352000000","0.00000001","0.0000000000000","7880.572","116.036","1522.803","1482.070","PAYLOAD","LARGE","CIS","1986-02-11","PKMTR","","2709763","149474933","0 COSMOS 1732","1 16593U 86015A   20056.25452458 +.00000001 +00000-0 +13352-3 0  9990","2 16593 073.6114 152.8340 0025844 125.1656 235.1814 12.40983826541995"
"2.0","GENERATED VIA SPACE-TRACK.ORG API","2020-02-24T22:36:14","18 SPCS","COSMOS 2498","2014-028C","EARTH","TEME","UTC","SGP4","2020-02-24T17:41:34.391904","12.42884163","0.00215050","82.4456","112.3128","56.1927","304.1199","0","U","39763","999","26131","-0.00006742700000","0.00000001","0.0000000000000","7872.537","115.859","1511.332","1477.472","PAYLOAD","LARGE","CIS","2014-05-23","PKMTR","","2709255","149421187","0 COSMOS 2498","1 39763U 14028C   20055.73720361  .00000001  00000-0 -67427-4 0  9996","2 39763  82.4456 112.3128 0021505  56.1927 304.1199 12.42884163261319"
"2.0","GENERATED VIA SPACE-TRACK.ORG API","2020-02-24T22:16:13","18 SPCS","COSMOS 1732","1986-015A","EARTH","TEME","UTC","SGP4","2020-02-24T16:33:59.724576","12.40983829","0.00258500","73.6115","153.5900","125.9886","234.3560","0","U","16593","999","54217","0.00012562000000","0.00000000","0.0000000000000","7880.572","116.036","1522.808","1482.066","PAYLOAD","LARGE","CIS","1986-02-11","PKMTR","","2709208","149420083","0 COSMOS 1732","1 16593U 86015A   20055.69027459 -.00000000  00000-0  12562-3 0  9998","2 16593  73.6115 153.5900 0025850 125.9886 234.3560 12.40983829542179"
"2.0","GENERATED VIA SPACE-TRACK.ORG API","2020-02-24T16:37:23","18 SPCS","COSMOS 1732","1986-015A","EARTH","TEME","UTC","SGP4","2020-02-24T04:57:32.983200","12.40983800","0.00258650","73.6114","154.2380","126.7016","233.6410","0","U","16593","999","54186","0.00005089300000","-0.00000010","0.0000000000000","7880.572","116.036","1522.820","1482.054","PAYLOAD","LARGE","CIS","1986-02-11","PKMTR","","2709133","149404133","0 COSMOS 1732","1 16593U 86015A   20055.20663175 -.00000010 +00000-0 +50893-4 0  9997","2 16593 073.6114 154.2380 0025865 126.7016 233.6410 12.40983800541868"
"2.0","GENERATED VIA SPACE-TRACK.ORG API","2020-02-24T16:37:23","18 SPCS","COSMOS 2498","2014-028C","EARTH","TEME","UTC","SGP4","2020-02-24T04:10:09.756192","12.42884143","0.00215220","82.4461","112.6660","57.4229","302.8932","0","U","39763","999","26124","-0.00009205300000","-0.00000003","0.0000000000000","7872.537","115.859","1511.345","1477.459","PAYLOAD","LARGE","CIS","2014-05-23","PKMTR","","2709133","149415232","0 COSMOS 2498","1 39763U 14028C   20055.17372403 -.00000003 +00000-0 -92053-4 0  9990","2 39763 082.4461 112.6660 0021522 057.4229 302.8932 12.42884143261247"
"2.0","GENERATED VIA SPACE-TRACK.ORG API","2020-02-24T02:48:55","18 SPCS","COSMOS 2498","2014-028C","EARTH","TEME","UTC","SGP4","2020-02-23T20:26:29.953248","12.42884137","0.00215510","82.4458","112.8675","58.0465","302.2707","0","U","39763","999","26120","-0.00008968100000","-0.00000002","0.0000000000000","7872.537","115.859","1511.368","1477.436","PAYLOAD","LARGE","CIS","2014-05-23","PKMTR","","2708763","149387158","0 COSMOS 2498","1 39763U 14028C   20054.85173557 -.00000002 +00000-0 -89681-4 0  9995","2 39763 082.4458 112.8675 0021551 058.0465 302.2707 12.42884137261205"
"2.0","GENERATED VIA SPACE-TRACK.ORG API","2020-02-24T02:48:55","18 SPCS","COSMOS 1732","1986-015A","EARTH","TEME","UTC","SGP4","2020-02-23T17:21:06.239232","12.40983797","0.00258780","73.6114","154.8860","127.4067","232.9337","0","U","16593","999","54180","0.00001879500000","-0.00000015","0.0000000000000","7880.572","116.036","1522.830","1482.044","PAYLOAD","LARGE","CIS","1986-02-11","PKMTR","","2708763","149376059","0 COSMOS 1732","1 16593U 86015A   20054.72298888 -.00000015 +00000-0 +18795-4 0  9998","2 16593 073.6114 154.8860 0025878 127.4067 232.9337 12.40983797541804"
"2.0","GENERATED VIA SPACE-TRACK.ORG API","2020-02-23T14:36:16","18 SPCS","COSMOS 2498","2014-028C","EARTH","TEME","UTC","SGP4","2020-02-23T12:42:50.140800","12.42884150","0.00215510","82.4459","113.0693","58.7324","301.5858","0","U","39763","999","26116","-0.00008462000000","-0.00000002","0.0000000000000","7872.537","115.859","1511.368","1477.436","PAYLOAD","LARGE","CIS","2014-05-23","PKMTR","","2708471","149326480","0 COSMOS 2498","1 39763U 14028C   20054.52974700 -.00000002  00000-0 -84620-4 0  9996","2 39763  82.4459 113.0693 0021551  58.7324 301.5858 12.42884150261169"
"2.0","GENERATED VIA SPACE-TRACK.ORG API","2020-02-23T19:25:00","18 SPCS","COSMOS 1732","1986-015A","EARTH","TEME","UTC","SGP4","2020-02-23T07:40:43.952160","12.40983791","0.00258890","73.6115","155.4261","127.9947","232.3440","0","U","16593","999","54175","-0.00003594100000","-0.00000022","0.0000000000000","7880.572","116.036","1522.839","1482.035","PAYLOAD","LARGE","CIS","1986-02-11","PKMTR","","2708573","149332949","0 COSMOS 1732","1 16593U 86015A   20054.31995315 -.00000022 +00000-0 -35941-4 0  9993","2 16593 073.6115 155.4261 0025889 127.9947 232.3440 12.40983791541758"
"2.0","GENERATED VIA SPACE-TRACK.ORG API","2020-02-23T02:08:14","18 SPCS","COSMOS 1732","1986-015A","EARTH","TEME","UTC","SGP4","2020-02-22T18:08:12.750432","12.40983792","0.00258960","73.6115","156.1821","128.8249","231.5112","0","U","16593","999","54168","-0.00004512100000","-0.00000023","0.0000000000000","7880.572","116.036","1522.845","1482.029","PAYLOAD","LARGE","CIS","1986-02-11","PKMTR","","2708216","149305176","0 COSMOS 1732","1 16593U 86015A   20053.75570313 -.00000023 +00000-0 -45121-4 0  9999","2 16593 073.6115 156.1821 0025896 128.8249 231.5112 12.40983792541681"
"2.0","GENERATED VIA SPACE-TRACK.ORG API","2020-02-23T02:08:14","18 SPCS","COSMOS 2498","2014-028C","EARTH","TEME","UTC","SGP4","2020-02-22T15:27:45.707328","12.42884150","0.00215620","82.4459","113.6244","60.5628","299.7607","0","U","39763","999","26105","-0.00010080000000","-0.00000004","0.0000000000000","7872.537","115.859","1511.377","1477.427","PAYLOAD","LARGE","CIS","2014-05-23","PKMTR","","2708216","149316275","0 COSMOS 2498","1 39763U 14028C   20053.64427902 -.00000004 +00000-0 -10080-3 0  9995","2 39763 082.4459 113.6244 0021562 060.5628 299.7607 12.42884150261055"
"2.0","GENERATED VIA SPACE-TRACK.ORG API","2020-02-22T17:39:40","18 SPCS","COSMOS 1732","1986-015A","EARTH","TEME","UTC","SGP4","2020-02-22T10:23:54.921984","12.40983775","0.00259020","73.6115","156.6141","129.3004","231.0342","0","U","16593","999","54164","-0.00008402200000","-0.00000029","0.0000000000000","7880.572","116.036","1522.849","1482.025","PAYLOAD","LARGE","CIS","1986-02-11","PKMTR","","2708018","149281606","0 COSMOS 1732","1 16593U 86015A   20053.43327456 -.00000029 +00000-0 -84022-4 0  9991","2 16593 073.6115 156.6141 0025902 129.3004 231.0342 12.40983775541641"
"2.0","GENERATED VIA SPACE-TRACK.ORG API","2020-02-22T17:39:40","18 SPCS","COSMOS 2498","2014-028C","EARTH","TEME","UTC","SGP4","2020-02-22T09:40:00.842592","12.42884132","0.00215700","82.4459","113.7757","61.0041","299.3192","0","U","39763","999","26102","-0.00010332000000","-0.00000004","0.0000000000000","7872.537","115.859","1511.383","1477.421","PAYLOAD","LARGE","CIS","2014-05-23","PKMTR","","2708018","149292705","0 COSMOS 2498","1 39763U 14028C   20053.40278753 -.00000004 +00000-0 -10332-3 0  9997","2 39763 082.4459 113.7757 0021570 061.0041 299.3192 12.42884132261021"
"2.0","GENERATED VIA SPACE-TRACK.ORG API","2020-02-22T14:26:14","18 SPCS","COSMOS 1732","1986-015A","EARTH","TEME","UTC","SGP4","2020-02-22T08:27:50.464224","12.40983781","0.00259060","73.6115","156.7221","129.4155","230.9188","0","U","16593","999","54188","-0.00008844800000","-0.00000029","0.0000000000000","7880.572","116.036","1522.852","1482.022","PAYLOAD","LARGE","CIS","1986-02-11","PKMTR","","2707853","149273509","0 COSMOS 1732","1 16593U 86015A   20053.35266741 -.00000029  00000-0 -88448-4 0  9997","2 16593  73.6115 156.7221 0025906 129.4155 230.9188 12.40983781541882"
"2.0","GENERATED VIA SPACE-TRACK.ORG API","2020-02-22T04:56:12","18 SPCS","COSMOS 2498","2014-028C","EARTH","TEME","UTC","SGP4","2020-02-22T03:52:15.988224","12.42884197","0.00215630","82.4457","113.9276","61.5195","298.8053","0","U","39763","999","26099","-0.00006437200000","0.00000001","0.0000000000000","7872.537","115.859","1511.377","1477.426","PAYLOAD","LARGE","CIS","2014-05-23","PKMTR","","2707644","149269061","0 COSMOS 2498","1 39763U 14028C   20053.16129616  .00000001  00000-0 -64372-4 0  9993","2 39763  82.4457 113.9276 0021563  61.5195 298.8053 12.42884197260990"
